STARLINK-5558           
1 55631U 23021D   26068.71082484  .00001332  00000+0  11942-3 0  9992
2 55631  70.0002 204.3096 0003213 267.5398  92.5393 14.98328248168302
HYPSO-2                 
1 60531U 24149BR  26068.64186663  .00003981  00000+0  33980-3 0  9993
2 60531  97.6894 146.3679 0001390  74.8032 285.3344 14.98259029 85149
